H1 CPF 01  gfz 2022 08 13 12  7252 terrasarx 
H2 0702601  6201 31698    2022 08 13 12 59 42 2022 08 18 00 00 42   120 1 1  0 0 0
H9
10 0 59807  19422.000000  0   -1028865.744  -1064536.942  -6734128.848
10 0 59807  19542.000000  0   -1916123.074  -1165575.838  -6519870.576
10 0 59807  19662.000000  0   -2771638.021  -1231170.165  -6191838.954
10 0 59807  19782.000000  0   -3579931.500  -1260859.908  -5755684.799
10 0 59807  19902.000000  0   -4326311.260  -1255066.284  -5218938.167
10 0 59807  20022.000000  0   -4997141.235  -1215070.588  -4590889.641
10 0 59807  20142.000000  0   -5580095.437  -1142974.271  -3882440.608
10 0 59807  20262.000000  0   -6064393.321  -1041640.780  -3105924.166
10 0 59807  20382.000000  0   -6441010.923   -914619.857  -2274897.023
10 0 59807  20502.000000  0   -6702861.361   -766055.682  -1403905.895
10 0 59807  20622.000000  0   -6844940.958   -600581.278   -508232.223
10 0 59807  20742.000000  0   -6864435.334   -423199.794    396381.627
10 0 59807  20862.000000  0   -6760781.094   -239156.985   1294015.729
10 0 59807  20982.000000  0   -6535683.956    -53808.956   2168861.361
10 0 59807  21102.000000  0   -6193090.322    127512.604   3005508.706
10 0 59807  21222.000000  0   -5739113.390    299634.159   3789226.686
10 0 59807  21342.000000  0   -5181915.567    457669.295   4506228.063
10 0 59807  21462.000000  0   -4531551.521    597139.283   5143914.354
10 0 59807  21582.000000  0   -3799776.412    714083.063   5691095.751
10 0 59807  21702.000000  0   -2999824.593    805153.873   6138184.475
10 0 59807  21822.000000  0   -2146162.297    867699.908   6477358.161
10 0 59807  21942.000000  0   -1254219.853    899828.856   6702691.355
10 0 59807  22062.000000  0    -340108.882    900454.353   6810251.963
10 0 59807  22182.000000  0     579668.817    869323.301   6798164.659
10 0 59807  22302.000000  0    1488517.934    807024.142   6666641.277
10 0 59807  22422.000000  0    2370047.756    714976.153   6417977.482
10 0 59807  22542.000000  0    3208367.052    595399.422   6056515.883
10 0 59807  22662.000000  0    3988372.482    451265.973   5588575.234
10 0 59807  22782.000000  0    4696024.060    286233.046   5022345.567
10 0 59807  22902.000000  0    5318603.382    104558.764   4367751.173
10 0 59807  23022.000000  0    5844950.962    -88997.282   3636282.167
10 0 59807  23142.000000  0    6265676.880   -289285.851   2840795.429
10 0 59807  23262.000000  0    6573338.834   -490890.966   1995287.512
10 0 59807  23382.000000  0    6762581.550   -688261.972   1114645.128
10 0 59807  23502.000000  0    6830237.473   -875849.780    214378.057
10 0 59807  23622.000000  0    6775384.519  -1048244.323   -689662.536
10 0 59807  23742.000000  0    6599356.299  -1200310.356  -1581572.889
10 0 59807  23862.000000  0    6305707.417  -1327317.182  -2445684.713
10 0 59807  23982.000000  0    5900133.902  -1425059.442  -3266847.006
10 0 59807  24102.000000  0    5390352.436  -1489965.923  -4030694.987
10 0 59807  24222.000000  0    4785941.789  -1519193.294  -4723901.137
10 0 59807  24342.000000  0    4098151.584  -1510703.280  -5334403.919
10 0 59807  24462.000000  0    3339682.412  -1463322.500  -5851610.798
10 0 59807  24582.000000  0    2524443.298  -1376782.943  -6266571.570
10 0 59807  24702.000000  0    1667293.252  -1251742.085  -6572122.218
10 0 59807  24822.000000  0     783769.720  -1089783.377  -6762998.020
10 0 59807  24942.000000  0    -110190.152   -893398.088  -6835914.678
10 0 59807  25062.000000  0    -998531.526   -665947.369  -6789618.256
10 0 59807  25182.000000  0   -1865363.374   -411605.988  -6624904.747
10 0 59807  25302.000000  0   -2695236.702   -135287.464  -6344607.108
10 0 59807  25422.000000  0   -3473413.335    157447.159  -5953551.062
10 0 59807  25542.000000  0   -4186124.427    460496.662  -5458482.071
10 0 59807  25662.000000  0   -4820815.350    767341.161  -4867959.470
10 0 59807  25782.000000  0   -5366371.345   1071175.771  -4192220.991
10 0 59807  25902.000000  0   -5813321.542   1365055.941  -3443016.037
10 0 59807  26022.000000  0   -6154014.079   1642049.762  -2633409.129
10 0 59807  26142.000000  0   -6382759.262   1895393.921  -1777556.898
10 0 59807  26262.000000  0   -6495937.128   2118650.499   -890461.751
10 0 59807  26382.000000  0   -6492065.233   2305860.257     12294.752
10 0 59807  26502.000000  0   -6371823.351   2451687.917    914832.484
10 0 59807  26622.000000  0   -6138034.324   2551556.533   1801260.123
10 0 59807  26742.000000  0   -5795601.705   2601767.334   2655964.265
10 0 59807  26862.000000  0   -5351405.202   2599600.946   3463892.733
10 0 59807  26982.000000  0   -4814157.279   2543397.393   4210826.933
10 0 59807  27102.000000  0   -4194223.872   2432613.334   4883635.465
10 0 59807  27222.000000  0   -3503416.381   2267855.828   5470504.983
10 0 59807  27342.000000  0   -2754759.203   2050892.302   5961146.001
10 0 59807  27462.000000  0   -1962236.371   1784636.023   6346969.718
10 0 59807  27582.000000  0   -1140524.308   1473107.082   6621232.425
10 0 59807  27702.000000  0    -304716.783   1121370.528   6779145.900
10 0 59807  27822.000000  0     529952.111    735452.958   6817955.051
10 0 59807  27942.000000  0    1348384.636    322238.951   6736982.843
10 0 59807  28062.000000  0    2135891.090   -110651.047   6537641.335
10 0 59807  28182.000000  0    2878452.556   -555000.458   6223409.663
10 0 59807  28302.000000  0    3562971.671  -1002151.425   5799777.893
10 0 59807  28422.000000  0    4177507.094  -1443172.136   5274156.544
10 0 59807  28542.000000  0    4711486.186  -1869034.666   4655752.549
10 0 59807  28662.000000  0    5155893.578  -2270798.870   3955414.277
10 0 59807  28782.000000  0    5503432.686  -2639799.815   3185445.230
10 0 59807  28902.000000  0    5748653.525  -2967834.151   2359387.667
10 0 59807  29022.000000  0    5888043.789  -3247340.544   1491782.664
10 0 59807  29142.000000  0    5920083.293  -3471570.939    597910.028
10 0 59807  29262.000000  0    5845257.238  -3634746.816   -306488.622
10 0 59807  29382.000000  0    5666029.825  -3732197.047  -1205495.431
10 0 59807  29502.000000  0    5386776.457  -3760472.831  -2083306.415
10 0 59807  29622.000000  0    5013677.948  -3717437.183  -2924516.264
10 0 59807  29742.000000  0    4554580.197  -3602328.198  -3714393.699
10 0 59807  29862.000000  0    4018822.531  -3415793.596  -4439141.099
10 0 59807  29982.000000  0    3417040.049  -3159896.568  -5086133.519
10 0 59807  30102.000000  0    2760945.197  -2838092.561  -5644132.241
10 0 59807  30222.000000  0    2063095.309  -2455180.183  -6103469.838
10 0 59807  30342.000000  0    1336650.865  -2017227.519  -6456207.867
10 0 59807  30462.000000  0     595126.724  -1531472.534  -6696264.508
10 0 59807  30582.000000  0    -147857.150  -1006201.732  -6819508.440
10 0 59807  30702.000000  0    -878820.979   -450609.947  -6823821.362
10 0 59807  30822.000000  0   -1584663.727    125357.238  -6709130.180
10 0 59807  30942.000000  0   -2252892.728    711177.268  -6477407.423
10 0 59807  31062.000000  0   -2871839.586   1295937.694  -6132640.774
10 0 59807  31182.000000  0   -3430860.514   1868534.354  -5680772.254
10 0 59807  31302.000000  0   -3920519.987   2417878.251  -5129607.369
10 0 59807  31422.000000  0   -4332754.442   2933108.699  -4488691.688
10 0 59807  31542.000000  0   -4661010.791   3403807.732  -3769155.273
10 0 59807  31662.000000  0   -4900357.368   3820211.861  -2983529.186
10 0 59807  31782.000000  0   -5047565.777   4173417.376  -2145533.733
10 0 59807  31902.000000  0   -5101159.952   4455572.955  -1269841.747
10 0 59807  32022.000000  0   -5061431.893   4660055.951   -371820.780
10 0 59807  32142.000000  0   -4930421.501   4781627.072    532741.619
10 0 59807  32262.000000  0   -4711860.572   4816558.646   1427923.663
10 0 59807  32382.000000  0   -4411082.105   4762731.666   2297959.377
10 0 59807  32502.000000  0   -4034896.086   4619700.609   3127525.346
10 0 59807  32622.000000  0   -3591436.420   4388724.099   3902017.584
10 0 59807  32742.000000  0   -3089983.814   4072760.810   4607813.246
10 0 59807  32862.000000  0   -2540768.705   3676431.347   5232512.848
10 0 59807  32982.000000  0   -1954758.214   3205946.363   5765157.614
10 0 59807  33102.000000  0   -1343433.027   2669003.560   6196418.101
10 0 59807  33222.000000  0    -718559.183   2074655.705   6518751.442
10 0 59807  33342.000000  0     -91961.462   1433154.023   6726525.746
10 0 59807  33462.000000  0     524700.009    755769.100   6816113.659
10 0 59807  33582.000000  0    1120146.231     54592.156   6785950.903
10 0 59807  33702.000000  0    1683684.363   -657679.759   6636562.229
10 0 59807  33822.000000  0    2205399.154  -1367973.228   6370553.464
10 0 59807  33942.000000  0    2676327.643  -2063077.425   5992569.491
10 0 59807  34062.000000  0    3088615.517  -2729890.432   5509218.751
10 0 59807  34182.000000  0    3435650.930  -3355667.741   4928963.227
10 0 59807  34302.000000  0    3712174.032  -3928269.100   4261976.386
10 0 59807  34422.000000  0    3914360.682  -4436398.831   3519969.246
10 0 59807  34542.000000  0    4039876.905  -4869834.449   2715986.626
10 0 59807  34662.000000  0    4087903.652  -5219638.195   1864177.136
10 0 59807  34782.000000  0    4059130.607  -5478345.851    979540.244
10 0 59807  34902.000000  0    3955718.459  -5640127.557     77655.599
10 0 59807  35022.000000  0    3781231.793  -5700917.101   -825598.229
10 0 59807  35142.000000  0    3540543.171  -5658507.354  -1714332.939
10 0 59807  35262.000000  0    3239710.037  -5512606.360  -2572938.209
10 0 59807  35382.000000  0    2885830.034  -5264855.615  -3386362.282
10 0 59807  35502.000000  0    2486876.360  -4918808.802  -4140379.989
10 0 59807  35622.000000  0    2051518.373  -4479872.628  -4821841.042
10 0 59807  35742.000000  0    1588933.263  -3955212.120  -5418894.517
10 0 59807  35862.000000  0    1108613.981  -3353624.004  -5921186.547
99
